ALDEBARAN-1
1 40024U 14033Q   25337.27299592  .00020961  00000-0  86313-3 0  9998
2 40024  98.0901 348.1837 0005192 127.4649 232.7059 15.24138142624060